[{"CCSDS_OMM_VERS":"2.0","COMMENT":"GENERATED VIA SPACE-TRACK.ORG API","CREATION_DATE":"2004-08-15T23:35:50","ORIGINATOR":"18 SPCS","OBJECT_NAME":"TITAN 3C TRANSTAGE DEB","OBJECT_ID":"1965-082JA","CENTER_NAME":"EARTH","REF_FRAME":"TEME","TIME_SYSTEM":"UTC","MEAN_ELEMENT_THEORY":"SGP4","EPOCH":"1967-03-21T02:47:58.976447","MEAN_MOTION":"15.43288417","ECCENTRICITY":"0.00496070","INCLINATION":"32.3270","RA_OF_ASC_NODE":"55.8799","ARG_OF_PERICENTER":"65.9631","MEAN_ANOMALY":"294.6159","EPHEMERIS_TYPE":"0","CLASSIFICATION_TYPE":"U","NORAD_CAT_ID":"1999","ELEMENT_SET_NO":"999","REV_AT_EPOCH":"7104","BSTAR":"0.00000000000000","MEAN_MOTION_DOT":"0.00334686","MEAN_MOTION_DDOT":"0.0000000000000","SEMIMAJOR_AXIS":"6814.553","PERIOD":"93.307","APOAPSIS":"470.223","PERIAPSIS":"402.613","OBJECT_TYPE":"DEBRIS","RCS_SIZE":null,"COUNTRY_CODE":null,"LAUNCH_DATE":null,"SITE":null,"DECAY_DATE":"1967-04-20","FILE":"33915","GP_ID":"8747299","TLE_LINE0":"0 TITAN 3C TRANSTAGE DEB","TLE_LINE1":"1 01999U 65082 JA 67080.11665482  .00334686 +00000-0 +00000-0 0  9993","TLE_LINE2":"2 01999 032.3270 055.8799 0049607 065.9631 294.6159 15.43288417071047"},{"CCSDS_OMM_VERS":"2.0","COMMENT":"GENERATED VIA SPACE-TRACK.ORG API","CREATION_DATE":"2004-08-15T23:35:50","ORIGINATOR":"18 SPCS","OBJECT_NAME":"SL-7 DEB","OBJECT_ID":"1967-024D","CENTER_NAME":"EARTH","REF_FRAME":"TEME","TIME_SYSTEM":"UTC","MEAN_ELEMENT_THEORY":"SGP4","EPOCH":"1967-03-21T18:43:10.325568","MEAN_MOTION":"16.26781955","ECCENTRICITY":"0.00677900","INCLINATION":"48.4475","RA_OF_ASC_NODE":"284.3391","ARG_OF_PERICENTER":"0.0015","MEAN_ANOMALY":"0.0849","EPHEMERIS_TYPE":"0","CLASSIFICATION_TYPE":"U","NORAD_CAT_ID":"2725","ELEMENT_SET_NO":"999","REV_AT_EPOCH":"6","BSTAR":"0.00000000000000","MEAN_MOTION_DOT":"0.36557942","MEAN_MOTION_DDOT":"0.0000000000000","SEMIMAJOR_AXIS":"6579.343","PERIOD":"88.518","APOAPSIS":"245.809","PERIAPSIS":"156.607","OBJECT_TYPE":"DEBRIS","RCS_SIZE":null,"COUNTRY_CODE":null,"LAUNCH_DATE":null,"SITE":null,"DECAY_DATE":"1967-03-26","FILE":"33915","GP_ID":"8754942","TLE_LINE0":"0 SL-7 DEB","TLE_LINE1":"1 02725U 67024  D 67080.77998062  .36557942 +00000-0 +00000-0 0  9995","TLE_LINE2":"2 02725 048.4475 284.3391 0067790 000.0015 000.0849 16.26781955000062"},{"CCSDS_OMM_VERS":"2.0","COMMENT":"GENERATED VIA SPACE-TRACK.ORG API","CREATION_DATE":"2004-08-15T23:35:50","ORIGINATOR":"18 SPCS","OBJECT_NAME":"SL-7 DEB","OBJECT_ID":"1967-024C","CENTER_NAME":"EARTH","REF_FRAME":"TEME","TIME_SYSTEM":"UTC","MEAN_ELEMENT_THEORY":"SGP4","EPOCH":"1967-03-21T20:15:20.665151","MEAN_MOTION":"16.17017917","ECCENTRICITY":"0.00394400","INCLINATION":"48.4475","RA_OF_ASC_NODE":"283.9470","ARG_OF_PERICENTER":"0.0007","MEAN_ANOMALY":"0.0863","EPHEMERIS_TYPE":"0","CLASSIFICATION_TYPE":"U","NORAD_CAT_ID":"2724","ELEMENT_SET_NO":"999","REV_AT_EPOCH":"7","BSTAR":"0.00000000000000","MEAN_MOTION_DOT":"0.33963686","MEAN_MOTION_DDOT":"0.0000000000000","SEMIMAJOR_AXIS":"6605.802","PERIOD":"89.052","APOAPSIS":"253.720","PERIAPSIS":"201.613","OBJECT_TYPE":"DEBRIS","RCS_SIZE":null,"COUNTRY_CODE":null,"LAUNCH_DATE":null,"SITE":null,"DECAY_DATE":"1967-03-26","FILE":"33915","GP_ID":"8754941","TLE_LINE0":"0 SL-7 DEB","TLE_LINE1":"1 02724U 67024  C 67080.84398918  .33963686 +00000-0 +00000-0 0  9999","TLE_LINE2":"2 02724 048.4475 283.9470 0039440 000.0007 000.0863 16.17017917000073"},{"CCSDS_OMM_VERS":"2.0","COMMENT":"GENERATED VIA SPACE-TRACK.ORG API","CREATION_DATE":"2004-08-15T23:35:50","ORIGINATOR":"18 SPCS","OBJECT_NAME":"SL-7 DEB","OBJECT_ID":"1967-024H","CENTER_NAME":"EARTH","REF_FRAME":"TEME","TIME_SYSTEM":"UTC","MEAN_ELEMENT_THEORY":"SGP4","EPOCH":"1967-03-22T02:28:30.532224","MEAN_MOTION":"15.80017027","ECCENTRICITY":"0.01206300","INCLINATION":"48.2540","RA_OF_ASC_NODE":"282.9855","ARG_OF_PERICENTER":"139.4068","MEAN_ANOMALY":"221.5865","EPHEMERIS_TYPE":"0","CLASSIFICATION_TYPE":"U","NORAD_CAT_ID":"2729","ELEMENT_SET_NO":"999","REV_AT_EPOCH":"11","BSTAR":"0.00000000000000","MEAN_MOTION_DOT":"-0.05866718","MEAN_MOTION_DDOT":"0.0000000000000","SEMIMAJOR_AXIS":"6708.533","PERIOD":"91.138","APOAPSIS":"411.323","PERIAPSIS":"249.473","OBJECT_TYPE":"DEBRIS","RCS_SIZE":null,"COUNTRY_CODE":null,"LAUNCH_DATE":null,"SITE":null,"DECAY_DATE":"1967-04-12","FILE":"33915","GP_ID":"8754946","TLE_LINE0":"0 SL-7 DEB","TLE_LINE1":"1 02729U 67024  H 67081.10313116 -.05866718 +00000-0 +00000-0 0  9999","TLE_LINE2":"2 02729 048.2540 282.9855 0120630 139.4068 221.5865 15.80017027000119"},{"CCSDS_OMM_VERS":"2.0","COMMENT":"GENERATED VIA SPACE-TRACK.ORG API","CREATION_DATE":"2004-08-15T23:35:50","ORIGINATOR":"18 SPCS","OBJECT_NAME":"SL-7 DEB","OBJECT_ID":"1967-024K","CENTER_NAME":"EARTH","REF_FRAME":"TEME","TIME_SYSTEM":"UTC","MEAN_ELEMENT_THEORY":"SGP4","EPOCH":"1967-03-22T14:29:23.515296","MEAN_MOTION":"15.91788727","ECCENTRICITY":"0.00670570","INCLINATION":"48.3317","RA_OF_ASC_NODE":"279.9653","ARG_OF_PERICENTER":"116.3034","MEAN_ANOMALY":"244.4742","EPHEMERIS_TYPE":"0","CLASSIFICATION_TYPE":"U","NORAD_CAT_ID":"2731","ELEMENT_SET_NO":"999","REV_AT_EPOCH":"19","BSTAR":"0.00000000000000","MEAN_MOTION_DOT":"0.03923824","MEAN_MOTION_DDOT":"0.0000000000000","SEMIMAJOR_AXIS":"6675.418","PERIOD":"90.464","APOAPSIS":"342.046","PERIAPSIS":"252.520","OBJECT_TYPE":"DEBRIS","RCS_SIZE":null,"COUNTRY_CODE":null,"LAUNCH_DATE":null,"SITE":null,"DECAY_DATE":"1967-04-03","FILE":"33915","GP_ID":"8754949","TLE_LINE0":"0 SL-7 DEB","TLE_LINE1":"1 02731U 67024  K 67081.60374439  .03923824 +00000-0 +00000-0 0  9991","TLE_LINE2":"2 02731 048.3317 279.9653 0067057 116.3034 244.4742 15.91788727000197"},{"CCSDS_OMM_VERS":"2.0","COMMENT":"GENERATED VIA SPACE-TRACK.ORG API","CREATION_DATE":"2004-08-15T23:35:50","ORIGINATOR":"18 SPCS","OBJECT_NAME":"SL-7 DEB","OBJECT_ID":"1967-024J","CENTER_NAME":"EARTH","REF_FRAME":"TEME","TIME_SYSTEM":"UTC","MEAN_ELEMENT_THEORY":"SGP4","EPOCH":"1967-03-24T13:33:04.206528","MEAN_MOTION":"15.85501715","ECCENTRICITY":"0.01010200","INCLINATION":"48.2996","RA_OF_ASC_NODE":"269.1970","ARG_OF_PERICENTER":"151.1476","MEAN_ANOMALY":"209.5026","EPHEMERIS_TYPE":"0","CLASSIFICATION_TYPE":"U","NORAD_CAT_ID":"2730","ELEMENT_SET_NO":"999","REV_AT_EPOCH":"50","BSTAR":"0.00000000000000","MEAN_MOTION_DOT":"0.01035110","MEAN_MOTION_DDOT":"0.0000000000000","SEMIMAJOR_AXIS":"6693.053","PERIOD":"90.822","APOAPSIS":"382.531","PERIAPSIS":"247.305","OBJECT_TYPE":"DEBRIS","RCS_SIZE":null,"COUNTRY_CODE":null,"LAUNCH_DATE":null,"SITE":null,"DECAY_DATE":"1967-04-03","FILE":"33915","GP_ID":"8754948","TLE_LINE0":"0 SL-7 DEB","TLE_LINE1":"1 02730U 67024  J 67083.56463202  .01035110 +00000-0 +00000-0 0  9994","TLE_LINE2":"2 02730 048.2996 269.1970 0101020 151.1476 209.5026 15.85501715000502"},{"CCSDS_OMM_VERS":"2.0","COMMENT":"GENERATED VIA SPACE-TRACK.ORG API","CREATION_DATE":"2004-08-15T23:35:50","ORIGINATOR":"18 SPCS","OBJECT_NAME":"SL-7 DEB","OBJECT_ID":"1967-024G","CENTER_NAME":"EARTH","REF_FRAME":"TEME","TIME_SYSTEM":"UTC","MEAN_ELEMENT_THEORY":"SGP4","EPOCH":"1967-03-24T14:08:24.676799","MEAN_MOTION":"16.08045066","ECCENTRICITY":"0.00127630","INCLINATION":"48.4048","RA_OF_ASC_NODE":"268.2855","ARG_OF_PERICENTER":"0.0002","MEAN_ANOMALY":"0.0870","EPHEMERIS_TYPE":"0","CLASSIFICATION_TYPE":"U","NORAD_CAT_ID":"2728","ELEMENT_SET_NO":"999","REV_AT_EPOCH":"51","BSTAR":"0.00000000000000","MEAN_MOTION_DOT":"0.01623354","MEAN_MOTION_DDOT":"0.0000000000000","SEMIMAJOR_AXIS":"6630.352","PERIOD":"89.549","APOAPSIS":"260.680","PERIAPSIS":"243.755","OBJECT_TYPE":"DEBRIS","RCS_SIZE":null,"COUNTRY_CODE":null,"LAUNCH_DATE":null,"SITE":null,"DECAY_DATE":"1967-03-27","FILE":"33915","GP_ID":"8754945","TLE_LINE0":"0 SL-7 DEB","TLE_LINE1":"1 02728U 67024  G 67083.58917450  .01623354 +00000-0 +00000-0 0  9995","TLE_LINE2":"2 02728 048.4048 268.2855 0012763 000.0002 000.0870 16.08045066000513"},{"CCSDS_OMM_VERS":"2.0","COMMENT":"GENERATED VIA SPACE-TRACK.ORG API","CREATION_DATE":"2004-08-15T23:35:50","ORIGINATOR":"18 SPCS","OBJECT_NAME":"SL-7 DEB","OBJECT_ID":"1967-024E","CENTER_NAME":"EARTH","REF_FRAME":"TEME","TIME_SYSTEM":"UTC","MEAN_ELEMENT_THEORY":"SGP4","EPOCH":"1967-03-24T14:13:53.092703","MEAN_MOTION":"16.05823468","ECCENTRICITY":"0.00194200","INCLINATION":"48.4049","RA_OF_ASC_NODE":"268.2352","ARG_OF_PERICENTER":"173.6375","MEAN_ANOMALY":"186.4749","EPHEMERIS_TYPE":"0","CLASSIFICATION_TYPE":"U","NORAD_CAT_ID":"2726","ELEMENT_SET_NO":"999","REV_AT_EPOCH":"51","BSTAR":"0.00000000000000","MEAN_MOTION_DOT":"0.00753672","MEAN_MOTION_DDOT":"0.0000000000000","SEMIMAJOR_AXIS":"6636.466","PERIOD":"89.673","APOAPSIS":"271.219","PERIAPSIS":"245.443","OBJECT_TYPE":"DEBRIS","RCS_SIZE":null,"COUNTRY_CODE":null,"LAUNCH_DATE":null,"SITE":null,"DECAY_DATE":"1967-03-27","FILE":"33915","GP_ID":"8754943","TLE_LINE0":"0 SL-7 DEB","TLE_LINE1":"1 02726U 67024  E 67083.59297561  .00753672 +00000-0 +00000-0 0  9994","TLE_LINE2":"2 02726 048.4049 268.2352 0019420 173.6375 186.4749 16.05823468000512"}]